[{"OBJECT_NAME":"STARLINK-5128","OBJECT_ID":"2022-125AL","EPOCH":"2022-10-28T22:00:01.999584","MEAN_MOTION":15.73219531,"ECCENTRICITY":0.0003042,"INCLINATION":53.2175,"RA_OF_ASC_NODE":337.9911,"ARG_OF_PERICENTER":10.3009,"MEAN_ANOMALY":174.6291,"EPHEMERIS_TYPE":0,"CLASSIFICATION_TYPE":"U","NORAD_CAT_ID":53998,"ELEMENT_SET_NO":999,"REV_AT_EPOCH":400,"BSTAR":-7.1041e-5,"MEAN_MOTION_DOT":-0.00010591,"MEAN_MOTION_DDOT":0},{"OBJECT_NAME":"STARLINK-5079","OBJECT_ID":"2022-125AM","EPOCH":"2022-10-28T22:00:01.999584","MEAN_MOTION":15.73208808,"ECCENTRICITY":0.0002909,"INCLINATION":53.2181,"RA_OF_ASC_NODE":337.9959,"ARG_OF_PERICENTER":12.3762,"MEAN_ANOMALY":170.1938,"EPHEMERIS_TYPE":0,"CLASSIFICATION_TYPE":"U","NORAD_CAT_ID":53999,"ELEMENT_SET_NO":999,"REV_AT_EPOCH":400,"BSTAR":-0.00014284,"MEAN_MOTION_DOT":-0.00020632,"MEAN_MOTION_DDOT":0},{"OBJECT_NAME":"STARLINK-5088","OBJECT_ID":"2022-125AN","EPOCH":"2022-10-29T04:00:00.999936","MEAN_MOTION":15.73232024,"ECCENTRICITY":0.0002789,"INCLINATION":53.2185,"RA_OF_ASC_NODE":336.7537,"ARG_OF_PERICENTER":24.0379,"MEAN_ANOMALY":138.162,"EPHEMERIS_TYPE":0,"CLASSIFICATION_TYPE":"U","NORAD_CAT_ID":54000,"ELEMENT_SET_NO":999,"REV_AT_EPOCH":404,"BSTAR":-0.00048771,"MEAN_MOTION_DOT":-0.00068622,"MEAN_MOTION_DDOT":0},{"OBJECT_NAME":"STARLINK-5105","OBJECT_ID":"2022-125AP","EPOCH":"2022-10-28T22:00:01.999584","MEAN_MOTION":15.73226275,"ECCENTRICITY":0.0002792,"INCLINATION":53.2177,"RA_OF_ASC_NODE":337.9887,"ARG_OF_PERICENTER":11.842,"MEAN_ANOMALY":174.2952,"EPHEMERIS_TYPE":0,"CLASSIFICATION_TYPE":"U","NORAD_CAT_ID":54001,"ELEMENT_SET_NO":999,"REV_AT_EPOCH":399,"BSTAR":-0.0003581,"MEAN_MOTION_DOT":-0.00050645,"MEAN_MOTION_DDOT":0},{"OBJECT_NAME":"STARLINK-5109","OBJECT_ID":"2022-125AQ","EPOCH":"2022-10-28T22:00:01.999584","MEAN_MOTION":15.73187582,"ECCENTRICITY":0.0002764,"INCLINATION":53.2193,"RA_OF_ASC_NODE":337.9535,"ARG_OF_PERICENTER":12.8711,"MEAN_ANOMALY":192.9081,"EPHEMERIS_TYPE":0,"CLASSIFICATION_TYPE":"U","NORAD_CAT_ID":54002,"ELEMENT_SET_NO":999,"REV_AT_EPOCH":399,"BSTAR":0.00015836,"MEAN_MOTION_DOT":0.00021651,"MEAN_MOTION_DDOT":0},{"OBJECT_NAME":"STARLINK-5114","OBJECT_ID":"2022-125AR","EPOCH":"2022-10-29T04:00:00.999936","MEAN_MOTION":15.73202458,"ECCENTRICITY":0.0003014,"INCLINATION":53.2183,"RA_OF_ASC_NODE":336.7558,"ARG_OF_PERICENTER":12.4001,"MEAN_ANOMALY":148.5904,"EPHEMERIS_TYPE":0,"CLASSIFICATION_TYPE":"U","NORAD_CAT_ID":54003,"ELEMENT_SET_NO":999,"REV_AT_EPOCH":402,"BSTAR":0.00019683,"MEAN_MOTION_DOT":0.00027099,"MEAN_MOTION_DDOT":0},{"OBJECT_NAME":"STARLINK-5129","OBJECT_ID":"2022-125AS","EPOCH":"2022-10-28T22:00:01.999584","MEAN_MOTION":15.73229699,"ECCENTRICITY":0.0003336,"INCLINATION":53.2181,"RA_OF_ASC_NODE":337.9856,"ARG_OF_PERICENTER":4.6627,"MEAN_ANOMALY":183.2715,"EPHEMERIS_TYPE":0,"CLASSIFICATION_TYPE":"U","NORAD_CAT_ID":54004,"ELEMENT_SET_NO":999,"REV_AT_EPOCH":399,"BSTAR":-0.00039074,"MEAN_MOTION_DOT":-0.0005519,"MEAN_MOTION_DDOT":0},{"OBJECT_NAME":"STARLINK-5135","OBJECT_ID":"2022-125AT","EPOCH":"2022-10-29T04:00:00.999936","MEAN_MOTION":15.73224082,"ECCENTRICITY":0.0002923,"INCLINATION":53.2177,"RA_OF_ASC_NODE":336.7501,"ARG_OF_PERICENTER":12.7897,"MEAN_ANOMALY":150.5859,"EPHEMERIS_TYPE":0,"CLASSIFICATION_TYPE":"U","NORAD_CAT_ID":54005,"ELEMENT_SET_NO":999,"REV_AT_EPOCH":403,"BSTAR":-0.00037283,"MEAN_MOTION_DOT":-0.00052687,"MEAN_MOTION_DDOT":0},{"OBJECT_NAME":"STARLINK-5096","OBJECT_ID":"2022-125AU","EPOCH":"2022-10-29T04:00:00.999936","MEAN_MOTION":15.73201937,"ECCENTRICITY":0.0002775,"INCLINATION":53.2182,"RA_OF_ASC_NODE":336.7437,"ARG_OF_PERICENTER":23.2397,"MEAN_ANOMALY":144.342,"EPHEMERIS_TYPE":0,"CLASSIFICATION_TYPE":"U","NORAD_CAT_ID":54006,"ELEMENT_SET_NO":999,"REV_AT_EPOCH":403,"BSTAR":-0.00024407,"MEAN_MOTION_DOT":-0.00034744,"MEAN_MOTION_DDOT":0},{"OBJECT_NAME":"STARLINK-5132","OBJECT_ID":"2022-125AV","EPOCH":"2022-10-28T22:00:01.999584","MEAN_MOTION":15.73203628,"ECCENTRICITY":0.0002606,"INCLINATION":53.2177,"RA_OF_ASC_NODE":337.9843,"ARG_OF_PERICENTER":15.3608,"MEAN_ANOMALY":173.1797,"EPHEMERIS_TYPE":0,"CLASSIFICATION_TYPE":"U","NORAD_CAT_ID":54007,"ELEMENT_SET_NO":999,"REV_AT_EPOCH":399,"BSTAR":-0.00013079,"MEAN_MOTION_DOT":-0.00018942,"MEAN_MOTION_DDOT":0},{"OBJECT_NAME":"STARLINK-5145","OBJECT_ID":"2022-125AW","EPOCH":"2022-10-29T04:00:00.999936","MEAN_MOTION":15.7320669,"ECCENTRICITY":0.0001841,"INCLINATION":53.2177,"RA_OF_ASC_NODE":336.4775,"ARG_OF_PERICENTER":26.9591,"MEAN_ANOMALY":272.8931,"EPHEMERIS_TYPE":0,"CLASSIFICATION_TYPE":"U","NORAD_CAT_ID":54008,"ELEMENT_SET_NO":999,"REV_AT_EPOCH":403,"BSTAR":-0.00010451,"MEAN_MOTION_DOT":-0.00015266,"MEAN_MOTION_DDOT":0},{"OBJECT_NAME":"STARLINK-5099","OBJECT_ID":"2022-125AX","EPOCH":"2022-10-28T22:00:01.999584","MEAN_MOTION":15.73225481,"ECCENTRICITY":0.0002852,"INCLINATION":53.218,"RA_OF_ASC_NODE":337.9816,"ARG_OF_PERICENTER":12.5049,"MEAN_ANOMALY":177.2103,"EPHEMERIS_TYPE":0,"CLASSIFICATION_TYPE":"U","NORAD_CAT_ID":54009,"ELEMENT_SET_NO":999,"REV_AT_EPOCH":399,"BSTAR":-0.00038373,"MEAN_MOTION_DOT":-0.00054202,"MEAN_MOTION_DDOT":0},{"OBJECT_NAME":"STARLINK-5127","OBJECT_ID":"2022-125AY","EPOCH":"2022-10-28T22:00:01.999584","MEAN_MOTION":15.73201182,"ECCENTRICITY":0.000208,"INCLINATION":53.2188,"RA_OF_ASC_NODE":337.7125,"ARG_OF_PERICENTER":28.2632,"MEAN_ANOMALY":296.9223,"EPHEMERIS_TYPE":0,"CLASSIFICATION_TYPE":"U","NORAD_CAT_ID":54010,"ELEMENT_SET_NO":999,"REV_AT_EPOCH":399,"BSTAR":-0.00026958,"MEAN_MOTION_DOT":-0.00038288,"MEAN_MOTION_DDOT":0},{"OBJECT_NAME":"STARLINK-5124","OBJECT_ID":"2022-125AZ","EPOCH":"2022-10-29T04:00:00.999936","MEAN_MOTION":15.73200461,"ECCENTRICITY":0.0002533,"INCLINATION":53.2177,"RA_OF_ASC_NODE":336.7458,"ARG_OF_PERICENTER":20.0006,"MEAN_ANOMALY":145.7789,"EPHEMERIS_TYPE":0,"CLASSIFICATION_TYPE":"U","NORAD_CAT_ID":54011,"ELEMENT_SET_NO":999,"REV_AT_EPOCH":403,"BSTAR":-6.1732e-5,"MEAN_MOTION_DOT":-9.278e-5,"MEAN_MOTION_DDOT":0},{"OBJECT_NAME":"STARLINK-5126","OBJECT_ID":"2022-125BA","EPOCH":"2022-10-28T22:00:01.999584","MEAN_MOTION":15.73193878,"ECCENTRICITY":0.0002906,"INCLINATION":53.2183,"RA_OF_ASC_NODE":337.9755,"ARG_OF_PERICENTER":14.9253,"MEAN_ANOMALY":178.3643,"EPHEMERIS_TYPE":0,"CLASSIFICATION_TYPE":"U","NORAD_CAT_ID":54012,"ELEMENT_SET_NO":999,"REV_AT_EPOCH":399,"BSTAR":9.5446e-6,"MEAN_MOTION_DOT":7.17e-6,"MEAN_MOTION_DDOT":0},{"OBJECT_NAME":"STARLINK-5098","OBJECT_ID":"2022-125BB","EPOCH":"2022-10-28T22:00:01.999584","MEAN_MOTION":15.73205279,"ECCENTRICITY":0.0003078,"INCLINATION":53.2176,"RA_OF_ASC_NODE":337.9766,"ARG_OF_PERICENTER":11.0097,"MEAN_ANOMALY":181.1018,"EPHEMERIS_TYPE":0,"CLASSIFICATION_TYPE":"U","NORAD_CAT_ID":54013,"ELEMENT_SET_NO":999,"REV_AT_EPOCH":399,"BSTAR":-0.00016745,"MEAN_MOTION_DOT":-0.00024068,"MEAN_MOTION_DDOT":0},{"OBJECT_NAME":"STARLINK-5116","OBJECT_ID":"2022-125BC","EPOCH":"2022-10-28T22:00:01.999584","MEAN_MOTION":15.73244488,"ECCENTRICITY":0.0003163,"INCLINATION":53.2181,"RA_OF_ASC_NODE":337.9772,"ARG_OF_PERICENTER":11.5626,"MEAN_ANOMALY":181.1239,"EPHEMERIS_TYPE":0,"CLASSIFICATION_TYPE":"U","NORAD_CAT_ID":54014,"ELEMENT_SET_NO":999,"REV_AT_EPOCH":399,"BSTAR":-0.00040758,"MEAN_MOTION_DOT":-0.0005756,"MEAN_MOTION_DDOT":0},{"OBJECT_NAME":"STARLINK-5055","OBJECT_ID":"2022-125BD","EPOCH":"2022-10-28T22:00:01.999584","MEAN_MOTION":15.73214131,"ECCENTRICITY":0.0002937,"INCLINATION":53.2175,"RA_OF_ASC_NODE":337.9717,"ARG_OF_PERICENTER":9.899,"MEAN_ANOMALY":184.6022,"EPHEMERIS_TYPE":0,"CLASSIFICATION_TYPE":"U","NORAD_CAT_ID":54015,"ELEMENT_SET_NO":999,"REV_AT_EPOCH":130,"BSTAR":-0.0002002,"MEAN_MOTION_DOT":-0.00028647,"MEAN_MOTION_DDOT":0},{"OBJECT_NAME":"CENTISPACE-1 S5","OBJECT_ID":"2022-126A","EPOCH":"2022-10-29T02:57:00.768384","MEAN_MOTION":14.57928493,"ECCENTRICITY":0.0013739,"INCLINATION":54.9966,"RA_OF_ASC_NODE":101.2395,"ARG_OF_PERICENTER":345.4719,"MEAN_ANOMALY":14.5879,"EPHEMERIS_TYPE":0,"CLASSIFICATION_TYPE":"U","NORAD_CAT_ID":54020,"ELEMENT_SET_NO":999,"REV_AT_EPOCH":315,"BSTAR":0.00013786,"MEAN_MOTION_DOT":4.56e-6,"MEAN_MOTION_DDOT":0},{"OBJECT_NAME":"CENTISPACE-1 S6","OBJECT_ID":"2022-126B","EPOCH":"2022-10-29T01:13:08.239584","MEAN_MOTION":14.58172545,"ECCENTRICITY":0.0015578,"INCLINATION":54.9968,"RA_OF_ASC_NODE":101.4931,"ARG_OF_PERICENTER":345.1828,"MEAN_ANOMALY":14.8711,"EPHEMERIS_TYPE":0,"CLASSIFICATION_TYPE":"U","NORAD_CAT_ID":54021,"ELEMENT_SET_NO":999,"REV_AT_EPOCH":313,"BSTAR":0.00012645,"MEAN_MOTION_DOT":4.05e-6,"MEAN_MOTION_DDOT":0},{"OBJECT_NAME":"OTB-3-GAZELLE","OBJECT_ID":"2022-127A","EPOCH":"2022-10-29T07:54:07.634592","MEAN_MOTION":14.4164717,"ECCENTRICITY":0.0012353,"INCLINATION":98.3157,"RA_OF_ASC_NODE":301.1367,"ARG_OF_PERICENTER":230.6286,"MEAN_ANOMALY":129.3822,"EPHEMERIS_TYPE":0,"CLASSIFICATION_TYPE":"U","NORAD_CAT_ID":54023,"ELEMENT_SET_NO":999,"REV_AT_EPOCH":311,"BSTAR":0,"MEAN_MOTION_DOT":-4.3e-7,"MEAN_MOTION_DDOT":0},{"OBJECT_NAME":"GALAXY 33","OBJECT_ID":"2022-128A","EPOCH":"2022-10-29T08:17:06.978624","MEAN_MOTION":1.00272208,"ECCENTRICITY":0.0002371,"INCLINATION":0.0175,"RA_OF_ASC_NODE":279.7876,"ARG_OF_PERICENTER":298.8856,"MEAN_ANOMALY":170.3019,"EPHEMERIS_TYPE":0,"CLASSIFICATION_TYPE":"U","NORAD_CAT_ID":54026,"ELEMENT_SET_NO":999,"REV_AT_EPOCH":44,"BSTAR":0,"MEAN_MOTION_DOT":8.5e-7,"MEAN_MOTION_DDOT":0},{"OBJECT_NAME":"GALAXY 34","OBJECT_ID":"2022-128B","EPOCH":"2022-10-28T15:36:05.736960","MEAN_MOTION":1.00380418,"ECCENTRICITY":0.0007849,"INCLINATION":0.0628,"RA_OF_ASC_NODE":75.7618,"ARG_OF_PERICENTER":198.8996,"MEAN_ANOMALY":208.458,"EPHEMERIS_TYPE":0,"CLASSIFICATION_TYPE":"U","NORAD_CAT_ID":54027,"ELEMENT_SET_NO":999,"REV_AT_EPOCH":46,"BSTAR":0,"MEAN_MOTION_DOT":1.33e-6,"MEAN_MOTION_DDOT":0}]
